TIANMU-1 07             
1 57399U 23101A   26065.57454230  .00008352  00000+0  29795-3 0  9991
2 57399  97.2728 118.5929 0004609 142.4105 217.7458 15.29118809145964
STARLINK-33641          
1 63718U 25087X   26068.72280609  .00027667  00000+0  94263-3 0  9997
2 63718  53.1582 219.4711 0000960  99.8078 260.3031 15.30204940 49200
